NORAD_CAT_ID,OBJECT_NAME,OBJECT_TYPE,EPOCH,MEAN_MOTION,ECCENTRICITY,INCLINATION,RA_OF_ASC_NODE,ARG_OF_PERICENTER,MEAN_ANOMALY,BSTAR,MEAN_MOTION_DOT,MEAN_MOTION_DDOT,TLE_LINE0,TLE_LINE1,TLE_LINE2,SEMIMAJOR_AXIS,PERIOD,APOGEE,PERIGEE,DECAYED
52607.0,STARLINK-3947,PAYLOAD,2022-06-08 04:00:01,15.49886438,0.0001195,53.2176,320.2423,86.07600000000002,243.236,-3.0689000000000004e-05,-2.193e-05,0.0,0 STARLINK-3947,1 52607U 22052K   22159.16668981 -.00002193  00000-0 -30689-4 0  9992,2 52607  53.2176 320.2423 0001195  86.0760 243.2360 15.49886438  4207,6795.195,92.91,417.872,416.24800000000016,0.0
52607.0,STARLINK-3947,PAYLOAD,2022-06-08 12:00:00,15.500110500000002,0.0001244,53.216,318.651,79.7659,310.3366,-0.0067932,-0.00369994,0.0,0 STARLINK-3947,1 52607U 22052K   22159.50001157 -.00369994  00000-0 -67932-2 0  9990,2 52607  53.2160 318.6510 0001244  79.7659 310.3366 15.50011050  4258,6794.831,92.903,417.541,415.85,0.0
52607.0,STARLINK-3947,PAYLOAD,2022-06-08 14:00:01,15.50118399,0.0001449,53.2164,318.2525,81.6134,53.6963,-0.01383,-0.00732094,0.0,0 STARLINK-3947,1 52607U 22052K   22159.58334491 -.00732094  00000-0 -13830-1 0  9990,2 52607  53.2164 318.2525 0001449  81.6134  53.6963 15.50118399  1308,6794.517,92.896,417.367,415.398,0.0
52607.0,STARLINK-3947,PAYLOAD,2022-06-08 20:00:01,15.49719899,0.0001195,53.2174,317.0559,92.0025,359.0433,-0.01618,-0.0083492,0.0,0 STARLINK-3947,1 52607U 22052K   22159.83334491 -.00834920  00000-0 -16180-1 0  9990,2 52607  53.2174 317.0559 0001195  92.0025 359.0433 15.49719899  4304,6795.682,92.92,418.359,416.735,0.0
52607.0,STARLINK-3947,PAYLOAD,2022-06-08 22:00:01,15.49567834,0.0001262,53.2172,316.6564,94.0243,102.2423,-0.016141,-0.00828974,0.0,0 STARLINK-3947,1 52607U 22052K   22159.91668981 -.00828974  00000-0 -16141-1 0  9992,2 52607  53.2172 316.6564 0001262  94.0243 102.2423 15.49567834  1306,6796.126,92.929,418.849,417.134,0.0
52607.0,STARLINK-3947,PAYLOAD,2022-06-09 14:00:01,15.48378007,0.0001171,53.2176,313.4696,76.8234,239.0074,-0.016969,-0.00835007,0.0,0 STARLINK-3947,1 52607U 22052K   22160.58334491 -.00835007  00000-0 -16969-1 0  9996,2 52607  53.2176 313.4696 0001171  76.8234 239.0074 15.48378007  1300,6799.608,93.001,422.269,420.676,0.0
52607.0,STARLINK-3947,PAYLOAD,2022-06-09 20:00:01,15.47928738,0.0001267,53.2175,312.2776,103.4656,166.4864,-0.017172,-0.00832046,0.0,0 STARLINK-3947,1 52607U 22052K   22160.83334491 -.00832046  00000-0 -17172-1 0  9991,2 52607  53.2175 312.2776 0001267 103.4656 166.4864 15.47928738  4456,6800.9230000000025,93.028,423.65,421.926,0.0
52607.0,STARLINK-3947,PAYLOAD,2022-06-09 22:00:00,15.47780011,0.0001045,53.2172,311.8799,102.0148,272.5545,-0.0172639999999999,-0.00832099,0.0,0 STARLINK-3947,1 52607U 22052K   22160.91667824 -.00832099  00000-0 -17264-1 0  9999,2 52607  53.2172 311.8799 0001045 102.0148 272.5545 15.47780011  1304,6801.359,93.036,423.935,422.513,0.0
52607.0,STARLINK-3947,PAYLOAD,2022-06-10 14:00:01,15.46586498,0.0001274,53.2173,308.7013,71.8332,58.0637,-0.01802,-0.00833046,0.0,0 STARLINK-3947,1 52607U 22052K   22161.58334491 -.00833046  00000-0 -18020-1 0  9998,2 52607  53.2173 308.7013 0001274  71.8332  58.0637 15.46586498  1302,6804.857,93.108,427.589,425.856,0.0
52607.0,STARLINK-3947,PAYLOAD,2022-06-10 20:00:01,15.46137012,0.0001103,53.2173,307.5124,93.0499,349.355,-0.018225,-0.00829748,0.0,0 STARLINK-3947,1 52607U 22052K   22161.83334491 -.00829748  00000-0 -18225-1 0  9997,2 52607  53.2173 307.5124 0001103  93.0499 349.3550 15.46137012  4614,6806.176,93.135,428.792,427.291,0.0
52607.0,STARLINK-3947,PAYLOAD,2022-06-10 22:00:00,15.45990119,0.0001252999999999,53.217,307.1156,94.2458,92.238,-0.018395,-0.0083297,0.0,0 STARLINK-3947,1 52607U 22052K   22161.91667824 -.00832970  00000-0 -18395-1 0  9994,2 52607  53.2170 307.1156 0001253  94.2458  92.2380 15.45990119  1308,6806.607,93.144,429.325,427.619,0.0
52607.0,STARLINK-3947,PAYLOAD,2022-06-11 20:00:01,15.44345899,0.0001274999999999,53.2174,302.7602,94.7099,153.6938,-0.019326,-0.00827486,0.0,0 STARLINK-3947,1 52607U 22052K   22162.83334491 -.00827486  00000-0 -19326-1 0  9998,2 52607  53.2174 302.7602 0001275  94.7099 153.6938 15.44345899  4761,6811.438,93.243,434.171,432.434,0.0
52607.0,STARLINK-3947,PAYLOAD,2022-06-11 22:00:00,15.44200684,0.000106,53.2172,302.3644,96.3176,255.6265,-0.019572,-0.00833284,0.0,0 STARLINK-3947,1 52607U 22052K   22162.91667824 -.00833284  00000-0 -19572-1 0  9992,2 52607  53.2172 302.3644 0001060  96.3176 255.6265 15.44200684  1302,6811.865,93.252,434.452,433.008,0.0
52607.0,STARLINK-3947,PAYLOAD,2022-06-12 12:00:00,15.43156682,0.0001166,53.2177,299.5979,67.9239,287.5593,-0.020322,-0.00845729,0.0,0 STARLINK-3947,1 52607U 22052K   22163.50001157 -.00845729  00000-0 -20322-1 0  9991,2 52607  53.2177 299.5979 0001166  67.9239 287.5593 15.43156682  4876,6814.937,93.315,437.596,436.007,0.0
52607.0,STARLINK-3947,PAYLOAD,2022-06-12 14:00:01,15.430063,0.0001315,53.2174,299.2039,59.5933,39.0734,-0.020382,-0.00844073,0.0,0 STARLINK-3947,1 52607U 22052K   22163.58334491 -.00844073  00000-0 -20382-1 0  9996,2 52607  53.2174 299.2039 0001315  59.5933  39.0734 15.43006300  1304,6815.379,93.324,438.141,436.348,0.0
52607.0,STARLINK-3947,PAYLOAD,2022-06-12 22:00:00,15.42410131,0.0001229,53.2171,297.6261,84.324,66.6275,-0.020805,-0.00844363,0.0,0 STARLINK-3947,1 52607U 22052K   22163.91667824 -.00844363  00000-0 -20805-1 0  9994,2 52607  53.2171 297.6261 0001229  84.3240  66.6275 15.42410131  1307,6817.136,93.36,439.838,438.163,0.0
52607.0,STARLINK-3947,PAYLOAD,2022-06-13 12:00:00,15.41364732,0.0001393,53.2176,294.8673,62.3903,88.3356,-0.02151,-0.00842974,0.0,0 STARLINK-3947,1 52607U 22052K   22164.50001157 -.00842974  00000-0 -21510-1 0  9991,2 52607  53.2176 294.8673 0001393  62.3903  88.3356 15.41364732  5020,6820.218000000003,93.424,443.033,441.133,0.0
52607.0,STARLINK-3947,PAYLOAD,2022-06-13 14:00:01,15.41213857,0.0001378,53.2175,294.4742,68.4685,184.9032,-0.021536,-0.00839977,0.0,0 STARLINK-3947,1 52607U 22052K   22164.58334491 -.00839977  00000-0 -21536-1 0  9996,2 52607  53.2175 294.4742 0001378  68.4685 184.9032 15.41213857  1301,6820.663000000001,93.433,443.468,441.588,0.0
52607.0,STARLINK-3947,PAYLOAD,2022-06-13 22:00:00,15.40621192,0.0001171,53.2171,292.9005,84.7932,218.7108,-0.022151,-0.00846477,0.0,0 STARLINK-3947,1 52607U 22052K   22164.91667824 -.00846477  00000-0 -22151-1 0  9999,2 52607  53.2171 292.9005 0001171  84.7932 218.7108 15.40621192  1303,6822.4119999999975,93.469,445.076,443.478,0.0
52607.0,STARLINK-3947,PAYLOAD,2022-06-14 12:00:00,15.39575461,0.0001237,53.2175,290.1496,67.6293,231.884,-0.02285,-0.00843628,0.0,0 STARLINK-3947,1 52607U 22052K   22165.50001157 -.00843628  00000-0 -22850-1 0  9997,2 52607  53.2175 290.1496 0001237  67.6293 231.8840 15.39575461  5177,6825.501,93.532,448.21,446.521,0.0
52607.0,STARLINK-3947,PAYLOAD,2022-06-14 14:00:01,15.39426268,0.0001250999999999,53.2175,289.7574,60.4582,341.1628,-0.022978,-0.0084414,0.0,0 STARLINK-3947,1 52607U 22052K   22165.58334491 -.00844140  00000-0 -22978-1 0  9996,2 52607  53.2175 289.7574 0001251  60.4582 341.1628 15.39426268  1306,6825.941999999999,93.541,448.661,446.953,0.0
52607.0,STARLINK-3947,PAYLOAD,2022-06-14 22:00:00,15.38828902,0.0001151,53.2171,288.188,75.2443,14.3596,-0.023388,-0.00842546,0.0,0 STARLINK-3947,1 52607U 22052K   22165.91667824 -.00842546  00000-0 -23388-1 0  9996,2 52607  53.2171 288.1880 0001151  75.2443  14.3596 15.38828902  1307,6827.708000000001,93.578,450.359,448.787,0.0
52607.0,STARLINK-3947,PAYLOAD,2022-06-15 14:00:01,15.37633677,0.0001513,53.2172,285.0533,59.0859,124.3327,-0.02426,-0.00840588,0.0,0 STARLINK-3947,1 52607U 22052K   22166.58334491 -.00840588  00000-0 -24260-1 0  9995,2 52607  53.2172 285.0533 0001513  59.0859 124.3327 15.37633677  1308,6831.246,93.65,454.144,452.077,0.0
52607.0,STARLINK-3947,PAYLOAD,2022-06-15 22:00:00,15.37039807,0.0001317,53.2171,283.488,82.6619,146.5872,-0.024885,-0.00845296,0.0,0 STARLINK-3947,1 52607U 22052K   22166.91667824 -.00845296  00000-0 -24885-1 0  9995,2 52607  53.2171 283.4880 0001317  82.6619 146.5872 15.37039807  1308,6833.005,93.687,455.77,453.971,0.0
52607.0,STARLINK-3947,PAYLOAD,2022-06-16 02:00:01,15.36739422,0.00012,53.2173,282.7055,63.3563,8.5402,-0.025007,-0.00841475,0.0,0 STARLINK-3947,1 52607U 22052K   22167.08334491 -.00841475  00000-0 -25007-1 0  9997,2 52607  53.2173 282.7055 0001200  63.3563   8.5402 15.36739422  1306,6833.896,93.705,456.581,454.941,0.0
52607.0,STARLINK-3947,PAYLOAD,2022-06-19 14:00:01,15.3047394,0.0001418,53.2175,266.3647,54.5007,271.565,-0.030541,-0.00841914,0.0,0 STARLINK-3947,1 52607U 22052K   22170.58334491 -.00841914  00000-0 -30541-1 0  9993,2 52607  53.2175 266.3647 0001418  54.5007 271.5650 15.30473940  1300,6852.534000000002,94.089,475.371,473.42800000000005,0.0
52607.0,STARLINK-3947,PAYLOAD,2022-06-19 22:00:00,15.29877764,0.000121,53.2174,264.8154,64.3537,298.9389,-0.031165,-0.00843176,0.0,0 STARLINK-3947,1 52607U 22052K   22170.91667824 -.00843176  00000-0 -31165-1 0  9994,2 52607  53.2174 264.8154 0001210  64.3537 298.9389 15.29877764  1304,6854.314,94.125,477.009,475.35,0.0
52607.0,STARLINK-3947,PAYLOAD,2022-06-20 12:00:00,15.28831872,0.0001431999999999,53.2174,262.11,51.6327,285.0801,-0.032059,-0.00840005,0.0,0 STARLINK-3947,1 52607U 22052K   22171.50001157 -.00840005  00000-0 -32059-1 0  9992,2 52607  53.2174 262.1100 0001432  51.6327 285.0801 15.28831872  6106,6857.44,94.19,480.287,478.323,0.0
52607.0,STARLINK-3947,PAYLOAD,2022-06-20 14:00:01,15.2868478,0.0001555,53.2176,261.7242,46.667,28.9256,-0.032358,-0.00843713,0.0,0 STARLINK-3947,1 52607U 22052K   22171.58334491 -.00843713  00000-0 -32358-1 0  9991,2 52607  53.2176 261.7242 0001555  46.6670  28.9256 15.28684780  1300,6857.88,94.199,480.811,478.679,0.0
